ONEWEB-0012             
1 44057U 19010A   26162.55340707  .00000018  00000+0  13250-4 0  9992
2 44057  87.9098 229.9041 0002053  86.4814 273.6552 13.16593785350827
ONEWEB-0010             
1 44058U 19010B   26162.57873649 -.00000011  00000+0 -61120-4 0  9995
2 44058  87.9102 229.8945 0001784 105.6792 254.4536 13.16594496350879
ONEWEB-0008             
1 44059U 19010C   26162.60406934 -.00000067  00000+0 -20983-3 0  9991
2 44059  87.9096 229.8852 0002319 100.4062 259.7330 13.16595242350990
ONEWEB-0007             
1 44060U 19010D   26162.55868914  .00000112  00000+0  26374-3 0  9996
2 44060  87.8999 260.3425 0001658  96.4239 263.7080 13.15548282350633
ONEWEB-0006             
1 44061U 19010E   26162.56263992  .00000181  00000+0  44627-3 0  9990
2 44061  87.9009 260.3053 0001821 102.6388 257.4946 13.15548823350688
ONEWEB-0011             
1 44062U 19010F   26162.22671307 -.00000120  00000+0 -35242-3 0  9995
2 44062  87.9011 260.3817 0002015 106.6363 253.4989 13.15550779350634
ONEWEB-0013             
1 45131U 20008A   26162.21001074  .00000227  00000+0  62295-3 0  9993
2 45131  87.8531  54.0310 0002496  58.5089 301.6282 13.09461625305284
ONEWEB-0017             
1 45132U 20008B   26162.57834023  .00000240  00000+0  65225-3 0  9992
2 45132  87.8836  37.3860 0001625  86.6338 273.4975 13.10369203307210
ONEWEB-0020             
1 45133U 20008C   26162.09052118 -.00025249  00000+0 -72765-1 0  9990
2 45133  87.8849  37.4818 0002539  39.3679 320.7632 13.10181111307549
ONEWEB-0021             
1 45134U 20008D   26162.56340789  .00000722  00000+0  20332-2 0  9998
2 45134  87.8837  37.4034 0001759  78.7572 281.3753 13.10373123307912
ONEWEB-0023             
1 45136U 20008F   26162.34512314  .00000418  00000+0  11624-2 0  9997
2 45136  87.8840  37.4285 0001934  79.7074 280.4271 13.10369917307314
ONEWEB-0024             
1 45137U 20008G   26162.62329575  .00000129  00000+0  33302-3 0  9991
2 45137  87.8850  37.3657 0001775  82.0756 278.0573 13.10375505307515
ONEWEB-0025             
1 45138U 20008H   26162.62301989  .00000113  00000+0  28822-3 0  9995
2 45138  87.8853  37.3552 0002170  92.8624 267.2752 13.10375493307847
ONEWEB-0026             
1 45139U 20008J   26162.58889415  .00000395  00000+0  10796-2 0  9998
2 45139  87.8889  22.1829 0001765  89.2047 270.9283 13.11419199310379
ONEWEB-0028             
1 45140U 20008K   26162.56429534 -.00000481  00000+0 -13933-2 0  9994
2 45140  87.8888  22.1964 0002072  69.1949 290.9400 13.11424559307881
ONEWEB-0032             
1 45141U 20008L   26162.58013790  .00000147  00000+0  38345-3 0  9992
2 45141  87.8834  37.3872 0002127  71.4308 288.7050 13.10368744307568
ONEWEB-0033             
1 45142U 20008M   26162.63146322  .00000474  00000+0  13221-2 0  9995
2 45142  87.8836  37.3845 0001501  95.7184 264.4115 13.10374487307482
ONEWEB-0035             
1 45143U 20008N   26162.57517025  .00000426  00000+0  11843-2 0  9996
2 45143  87.8833  37.3883 0001723  84.6388 275.4936 13.10371388307201
ONEWEB-0036             
1 45144U 20008P   26162.62499282  .00000159  00000+0  42081-3 0  9999
2 45144  87.8858  37.3888 0001989  77.5515 282.5835 13.09984944307631
ONEWEB-0038             
1 45145U 20008Q   26162.59921415  .00000577  00000+0  15924-2 0  9993
2 45145  87.8904  22.1886 0000849  16.3533 343.7622 13.11417249309592
ONEWEB-0039             
1 45146U 20008R   26162.40571296  .00000220  00000+0  59533-3 0  9992
2 45146  87.8831  37.4196 0001969  67.1494 292.9841 13.10372625307402
ONEWEB-0040             
1 45147U 20008S   26162.62814172  .00000365  00000+0  10098-2 0  9992
2 45147  87.8839  37.3863 0001729  78.0402 282.0919 13.10375392307135
ONEWEB-0043             
1 45149U 20008U   26162.62980565  .00000390  00000+0  10817-2 0  9991
2 45149  87.8844  37.3732 0002147  67.7407 292.3948 13.10375388307459
ONEWEB-0044             
1 45150U 20008V   26162.58165860  .00000078  00000+0  18771-3 0  9992
2 45150  87.8842  37.3829 0001830  76.0425 284.0906 13.10368959307747
ONEWEB-0045             
1 45151U 20008W   26162.59399055  .00000520  00000+0  14315-2 0  9990
2 45151  87.8898  22.1726 0001805  80.5760 279.5572 13.11418257309671
ONEWEB-0047             
1 45152U 20008X   26162.57488956  .00000440  00000+0  12239-2 0  9992
2 45152  87.8841  37.3839 0001598  82.8802 277.2507 13.10370539307461
ONEWEB-0048             
1 45153U 20008Y   26162.57004741  .00000610  00000+0  17101-2 0  9991
2 45153  87.8836  37.4064 0001734  82.2447 277.8877 13.10371378307073
ONEWEB-0049             
1 45154U 20008Z   26162.57323301  .00000485  00000+0  13544-2 0  9995
2 45154  87.8837  37.3951 0002228  83.5001 276.6380 13.10370188307296
ONEWEB-0051             
1 45155U 20008AA  26162.59230321  .00000511  00000+0  14069-2 0  9990
2 45155  87.8891  22.1809 0001825  83.7538 276.3798 13.11418457310354
ONEWEB-0052             
1 45156U 20008AB  26162.59340822 -.00000498  00000+0 -14640-2 0  9990
2 45156  87.8838  37.3768 0002251  82.6453 277.4930 13.10370482307200
